BRAC ONNESHA            
1 42823U 98067MX  18098.51221434  .00015859  00000-0  16585-3 0  9993
2 42823  51.6376 354.9552 0004080 280.5223  79.5312 15.64631840 42917
NIGERIAEDUSAT-1         
1 42824U 98067MY  18097.95375431  .00015877  00000-0  16711-3 0  9999
2 42824  51.6385 357.9875 0003973 278.9820  81.0725 15.64466683 42842
CORVUS BC2              
1 42846U 17042X   18097.77818485  .00000008  00000-0  61031-5 0  9995
2 42846  97.6027   3.1718 0011182  73.5034 286.7413 14.91785127 39875
CORVUS BC1              
1 42847U 17042Y   18097.69345139  .00000208  00000-0  25899-4 0  9991
2 42847  97.6026   3.1290 0010803  73.5005 286.7401 14.91884075 39854
SILU-1 (SILKROAD 1)     
1 42903U 17021F   18098.54688657  .00019763  00000-0  17244-3 0  9991
2 42903  42.7804  29.1140 0010132 178.8295 173.8875 15.68518745 38975
MIRATA                  
1 43015U 17073C   18098.35967334  .00000845  00000-0  71746-4 0  9993
2 43015  97.7006  32.3379 0259738 138.5879 223.5345 14.77919319 20823
ASTERIA                 
1 43020U 98067NH  18098.12473628  .00010184  00000-0  14151-3 0  9997
2 43020  51.6417   5.9079 0001626 260.9568  99.1240 15.57650271 21564
DELLINGR (RBLE)         
1 43021U 98067NJ  18098.17406037  .00005968  00000-0  89181-4 0  9993
2 43021  51.6408   6.2293 0001500 255.0055 105.0771 15.56557547 21561
TECHEDSAT 6             
1 43026U 98067NK  18098.19175525  .00154647  00000-0  94753-3 0  9994
2 43026  51.6322 358.0432 0004212 197.1563 162.9295 15.76301539 21571
OSIRIS-3U               
1 43027U 98067NL  18097.99186448  .00020480  00000-0  24793-3 0  9992
2 43027  51.6394   5.0100 0002506 219.8696 140.2113 15.60644029 21446
AEROCUBE 7B             
1 43042U 17071F   18097.90962031  .00002690  00000-0  80261-4 0  9992
2 43042  51.6405  23.7780 0005549  18.4362 341.6822 15.38377166 18787
AEROCUBE 7C             
1 43043U 17071G   18098.10386242  .00002647  00000-0  79152-4 0  9999
2 43043  51.6407  22.8275 0005523  20.0290 340.0910 15.38374243 18784
CHEFSAT                 
1 43044U 17071H   18097.95173444  .00004860  00000-0  13425-3 0  9999
2 43044  51.6406  23.3194 0005597  17.7198 342.3980 15.38926079 18761
ASGARDIA 1              
1 43049U 17071N   18097.96099418  .00002269  00000-0  68980-4 0  9991
2 43049  51.6408  23.3770 0003139  42.4886 317.6340 15.38518363 18765
ISARA                   
1 43050U 17071P   18097.94852732  .00004185  00000-0  11722-3 0  9997
2 43050  51.6405  23.2994 0003130  40.0973 320.0241 15.38875112 18769
FAUNA                   
1 43052U 17071R   18097.95496540  .00002641  00000-0  78358-4 0  9995
2 43052  51.6411  23.3418 0003024  39.7821 320.3384 15.38623256 18759
CORVUS BC3              
1 43118U 18004H   18097.73756016  .00000680  00000-0  32793-4 0  9992
2 43118  97.5406 160.1647 0010227 350.4380   9.6659 15.22111917 12996
MICROMAS-2A             
1 43131U 18004W   18097.65424381  .00001584  00000-0  71398-4 0  9993
2 43131  97.5412 160.1271 0009466 355.0117   5.1023 15.22514622 12988
GOMX4-B                 
1 43196U 18015E   18097.93287328  .00000540  00000-0  25493-4 0  9991
2 43196  97.3354 228.3693 0021205  48.6131 311.6924 15.23453228  9833
GOMX4-A                 
1 43197U 18015F   18098.40310172  .00000545  00000-0  25616-4 0  9991
2 43197  97.3357 228.8245 0020962  46.8792   4.1480 15.23578678  9914
